GAOFEN-2                
1 40118U 14049A   26162.70335847  .00000391  00000+0  57507-4 0  9996
2 40118  98.0112 226.9158 0005913 248.9113 111.1467 14.80893025638420
GAOFEN-3                
1 41727U 16049A   26162.74186767 -.00000093  00000+0 -15027-4 0  9996
2 41727  98.4014 170.6099 0001280  99.4600 260.6735 14.42214346517867
GAOFEN-1 04             
1 43262U 18031D   26162.69518029  .00000953  00000+0  14432-3 0  9990
2 43262  98.0531 225.2865 0002256  87.9447 272.2021 14.76473003441874
GAOFEN-11 01            
1 43585U 18063A   26162.70423881  .00015475  00000+0  23098-3 0  9999
2 43585  97.1297 229.5998 0003808  18.2004 341.9387 15.55132917439493
GAOFEN-10R              
1 44622U 19066A   26162.68877631  .00000984  00000+0  12770-3 0  9993
2 44622  98.0496 116.2280 0006310 142.5435 217.6219 14.83048811361567
GAOFEN-12 01            
1 44819U 19082A   26162.74026521  .00000351  00000+0  52495-4 0  9997
2 44819  97.8106 169.2635 0002409  76.7345 283.4136 14.80454120353285
GAOFEN-12 02            
1 48079U 21026A   26162.75074106  .00000319  00000+0  48861-4 0  9999
2 48079  97.9920 160.9536 0003399 245.6400 114.4457 14.80291995280959
GAOFEN-3 02             
1 49495U 21109A   26162.70681000 -.00000143  00000+0 -30220-4 0  9993
2 49495  98.4091 170.8814 0003283  30.3879 329.7501 14.42215638239523
GAOFEN-12 03            
1 52912U 22069A   26162.71206832  .00000774  00000+0  10900-3 0  9994
2 52912  97.8290  50.7198 0001835 109.2525 250.8886 14.80025498213809
GAOFEN-12 04            
1 57654U 23123A   26162.72946882  .00000860  00000+0  11994-3 0  9991
2 57654  97.9125  80.8256 0001798  85.4049 274.7368 14.80218385151820
