{
 "generated_at": "2026-06-11T23:47:41Z",
 "sources": [
  {
   "name": "CelesTrak",
   "url": "https://celestrak.org/NORAD/elements/",
   "license": "frei verfügbar; Attribution. Ursprünglich USSPACECOM/Space-Track."
  },
  {
   "name": "GCAT (J. McDowell, planet4589.org)",
   "url": "https://planet4589.org/space/gcat/",
   "license": "CC-BY 4.0"
  }
 ],
 "satellites": [
  {
   "norad": 43262,
   "name": "GAOFEN-1 04",
   "intl": "2018-031D",
   "group": "resource",
   "gcat": {
    "class": "C",
    "category": "IMG",
    "owner": "CNSAS",
    "state": "CN"
   },
   "omm": {
    "OBJECT_NAME": "GAOFEN-1 04",
    "OBJECT_ID": "2018-031D",
    "EPOCH": "2026-06-11T16:41:03.577056",
    "MEAN_MOTION": 14.76473003,
    "ECCENTRICITY": 0.0002256,
    "INCLINATION": 98.0531,
    "RA_OF_ASC_NODE": 225.2865,
    "ARG_OF_PERICENTER": 87.9447,
    "MEAN_ANOMALY": 272.2021,
    "EPHEMERIS_TYPE": 0,
    "CLASSIFICATION_TYPE": "U",
    "NORAD_CAT_ID": 43262,
    "ELEMENT_SET_NO": 999,
    "REV_AT_EPOCH": 44187,
    "BSTAR": 0.00014432,
    "MEAN_MOTION_DOT": 0.00000953,
    "MEAN_MOTION_DDOT": 0
   }
  },
  {
   "norad": 44622,
   "name": "GAOFEN-10R",
   "intl": "2019-066A",
   "group": "resource",
   "gcat": {
    "class": null,
    "category": null,
    "owner": null,
    "state": null
   },
   "omm": {
    "OBJECT_NAME": "GAOFEN-10R",
    "OBJECT_ID": "2019-066A",
    "EPOCH": "2026-06-11T16:31:50.273184",
    "MEAN_MOTION": 14.83048811,
    "ECCENTRICITY": 0.000631,
    "INCLINATION": 98.0496,
    "RA_OF_ASC_NODE": 116.228,
    "ARG_OF_PERICENTER": 142.5435,
    "MEAN_ANOMALY": 217.6219,
    "EPHEMERIS_TYPE": 0,
    "CLASSIFICATION_TYPE": "U",
    "NORAD_CAT_ID": 44622,
    "ELEMENT_SET_NO": 999,
    "REV_AT_EPOCH": 36156,
    "BSTAR": 0.0001277,
    "MEAN_MOTION_DOT": 0.00000984,
    "MEAN_MOTION_DDOT": 0
   }
  },
  {
   "norad": 43585,
   "name": "GAOFEN-11 01",
   "intl": "2018-063A",
   "group": "resource",
   "gcat": {
    "class": null,
    "category": null,
    "owner": null,
    "state": null
   },
   "omm": {
    "OBJECT_NAME": "GAOFEN-11 01",
    "OBJECT_ID": "2018-063A",
    "EPOCH": "2026-06-11T16:54:06.233184",
    "MEAN_MOTION": 15.55132917,
    "ECCENTRICITY": 0.0003808,
    "INCLINATION": 97.1297,
    "RA_OF_ASC_NODE": 229.5998,
    "ARG_OF_PERICENTER": 18.2004,
    "MEAN_ANOMALY": 341.9387,
    "EPHEMERIS_TYPE": 0,
    "CLASSIFICATION_TYPE": "U",
    "NORAD_CAT_ID": 43585,
    "ELEMENT_SET_NO": 999,
    "REV_AT_EPOCH": 43949,
    "BSTAR": 0.00023098,
    "MEAN_MOTION_DOT": 0.00015475,
    "MEAN_MOTION_DDOT": 0
   }
  },
  {
   "norad": 44819,
   "name": "GAOFEN-12 01",
   "intl": "2019-082A",
   "group": "resource",
   "gcat": {
    "class": null,
    "category": null,
    "owner": null,
    "state": null
   },
   "omm": {
    "OBJECT_NAME": "GAOFEN-12 01",
    "OBJECT_ID": "2019-082A",
    "EPOCH": "2026-06-11T17:45:58.914144",
    "MEAN_MOTION": 14.8045412,
    "ECCENTRICITY": 0.0002409,
    "INCLINATION": 97.8106,
    "RA_OF_ASC_NODE": 169.2635,
    "ARG_OF_PERICENTER": 76.7345,
    "MEAN_ANOMALY": 283.4136,
    "EPHEMERIS_TYPE": 0,
    "CLASSIFICATION_TYPE": "U",
    "NORAD_CAT_ID": 44819,
    "ELEMENT_SET_NO": 999,
    "REV_AT_EPOCH": 35328,
    "BSTAR": 0.000052495,
    "MEAN_MOTION_DOT": 0.00000351,
    "MEAN_MOTION_DDOT": 0
   }
  },
  {
   "norad": 48079,
   "name": "GAOFEN-12 02",
   "intl": "2021-026A",
   "group": "resource",
   "gcat": {
    "class": "D",
    "category": "IMG-R",
    "owner": "ZLZB",
    "state": "CN"
   },
   "omm": {
    "OBJECT_NAME": "GAOFEN-12 02",
    "OBJECT_ID": "2021-026A",
    "EPOCH": "2026-06-11T18:01:04.027584",
    "MEAN_MOTION": 14.80291995,
    "ECCENTRICITY": 0.0003399,
    "INCLINATION": 97.992,
    "RA_OF_ASC_NODE": 160.9536,
    "ARG_OF_PERICENTER": 245.64,
    "MEAN_ANOMALY": 114.4457,
    "EPHEMERIS_TYPE": 0,
    "CLASSIFICATION_TYPE": "U",
    "NORAD_CAT_ID": 48079,
    "ELEMENT_SET_NO": 999,
    "REV_AT_EPOCH": 28095,
    "BSTAR": 0.000048861,
    "MEAN_MOTION_DOT": 0.00000319,
    "MEAN_MOTION_DDOT": 0
   }
  },
  {
   "norad": 52912,
   "name": "GAOFEN-12 03",
   "intl": "2022-069A",
   "group": "resource",
   "gcat": {
    "class": "D",
    "category": "IMG-R",
    "owner": "ZLZB",
    "state": "CN"
   },
   "omm": {
    "OBJECT_NAME": "GAOFEN-12 03",
    "OBJECT_ID": "2022-069A",
    "EPOCH": "2026-06-11T17:05:22.702848",
    "MEAN_MOTION": 14.80025498,
    "ECCENTRICITY": 0.0001835,
    "INCLINATION": 97.829,
    "RA_OF_ASC_NODE": 50.7198,
    "ARG_OF_PERICENTER": 109.2525,
    "MEAN_ANOMALY": 250.8886,
    "EPHEMERIS_TYPE": 0,
    "CLASSIFICATION_TYPE": "U",
    "NORAD_CAT_ID": 52912,
    "ELEMENT_SET_NO": 999,
    "REV_AT_EPOCH": 21380,
    "BSTAR": 0.000109,
    "MEAN_MOTION_DOT": 0.00000774,
    "MEAN_MOTION_DDOT": 0
   }
  },
  {
   "norad": 57654,
   "name": "GAOFEN-12 04",
   "intl": "2023-123A",
   "group": "resource",
   "gcat": {
    "class": "D",
    "category": "IMG-R",
    "owner": "ZLZB",
    "state": "CN"
   },
   "omm": {
    "OBJECT_NAME": "GAOFEN-12 04",
    "OBJECT_ID": "2023-123A",
    "EPOCH": "2026-06-11T17:30:26.106048",
    "MEAN_MOTION": 14.80218385,
    "ECCENTRICITY": 0.0001798,
    "INCLINATION": 97.9125,
    "RA_OF_ASC_NODE": 80.8256,
    "ARG_OF_PERICENTER": 85.4049,
    "MEAN_ANOMALY": 274.7368,
    "EPHEMERIS_TYPE": 0,
    "CLASSIFICATION_TYPE": "U",
    "NORAD_CAT_ID": 57654,
    "ELEMENT_SET_NO": 999,
    "REV_AT_EPOCH": 15182,
    "BSTAR": 0.00011994,
    "MEAN_MOTION_DOT": 0.0000086,
    "MEAN_MOTION_DDOT": 0
   }
  },
  {
   "norad": 40118,
   "name": "GAOFEN-2",
   "intl": "2014-049A",
   "group": "resource",
   "gcat": {
    "class": "C",
    "category": "IMG",
    "owner": "CNSAS",
    "state": "CN"
   },
   "omm": {
    "OBJECT_NAME": "GAOFEN-2",
    "OBJECT_ID": "2014-049A",
    "EPOCH": "2026-06-11T16:52:50.171808",
    "MEAN_MOTION": 14.80893025,
    "ECCENTRICITY": 0.0005913,
    "INCLINATION": 98.0112,
    "RA_OF_ASC_NODE": 226.9158,
    "ARG_OF_PERICENTER": 248.9113,
    "MEAN_ANOMALY": 111.1467,
    "EPHEMERIS_TYPE": 0,
    "CLASSIFICATION_TYPE": "U",
    "NORAD_CAT_ID": 40118,
    "ELEMENT_SET_NO": 999,
    "REV_AT_EPOCH": 63842,
    "BSTAR": 0.000057507,
    "MEAN_MOTION_DOT": 0.00000391,
    "MEAN_MOTION_DDOT": 0
   }
  },
  {
   "norad": 41727,
   "name": "GAOFEN-3",
   "intl": "2016-049A",
   "group": "resource",
   "gcat": {
    "class": "C",
    "category": "IMG-R",
    "owner": "GWHYZ",
    "state": "CN"
   },
   "omm": {
    "OBJECT_NAME": "GAOFEN-3",
    "OBJECT_ID": "2016-049A",
    "EPOCH": "2026-06-11T17:48:17.366688",
    "MEAN_MOTION": 14.42214346,
    "ECCENTRICITY": 0.000128,
    "INCLINATION": 98.4014,
    "RA_OF_ASC_NODE": 170.6099,
    "ARG_OF_PERICENTER": 99.46,
    "MEAN_ANOMALY": 260.6735,
    "EPHEMERIS_TYPE": 0,
    "CLASSIFICATION_TYPE": "U",
    "NORAD_CAT_ID": 41727,
    "ELEMENT_SET_NO": 999,
    "REV_AT_EPOCH": 51786,
    "BSTAR": -0.000015027,
    "MEAN_MOTION_DOT": -9.3e-7,
    "MEAN_MOTION_DDOT": 0
   }
  },
  {
   "norad": 49495,
   "name": "GAOFEN-3 02",
   "intl": "2021-109A",
   "group": "sar",
   "gcat": {
    "class": "C",
    "category": "IMG-R",
    "owner": "GWHYZ",
    "state": "CN"
   },
   "omm": {
    "OBJECT_NAME": "GAOFEN-3 02",
    "OBJECT_ID": "2021-109A",
    "EPOCH": "2026-06-11T16:57:48.384000",
    "MEAN_MOTION": 14.42215638,
    "ECCENTRICITY": 0.0003283,
    "INCLINATION": 98.4091,
    "RA_OF_ASC_NODE": 170.8814,
    "ARG_OF_PERICENTER": 30.3879,
    "MEAN_ANOMALY": 329.7501,
    "EPHEMERIS_TYPE": 0,
    "CLASSIFICATION_TYPE": "U",
    "NORAD_CAT_ID": 49495,
    "ELEMENT_SET_NO": 999,
    "REV_AT_EPOCH": 23952,
    "BSTAR": -0.00003022,
    "MEAN_MOTION_DOT": -0.00000143,
    "MEAN_MOTION_DDOT": 0
   }
  }
 ]
}
